1 25338U 98030A   20007.55647542  .00000036  00000-0  33784-4 0  9996
2 25338  98.7323  33.3038 0010676  19.0673 341.0905 14.25946440126168
1 28654U 05018A   20007.51586063  .00000078  00000-0  67155-4 0  9995
2 28654  99.0693  62.2441 0013666 330.2759  29.7635 14.12479786754145
1 29499U 06044A   20007.11917884 -.00000002  00000-0  18350-4 0  9999
2 29499  98.5482  59.2697 0001284  70.6018 343.4435 14.21492872685821
1 33591U 09005A   20007.50896566  .00000043  00000-0  48640-4 0  9992
2 33591  99.1922   8.6678 0014133 166.2851 193.8706 14.12390737562533
1 38771U 12049A   20006.91303973 -.00000011  00000-0  14873-4 0  9995
2 38771  98.7168  68.5087 0002055 107.6647  65.1812 14.21482893378939
1 39086U 13009A   20007.14574709 -.00000016  00000-0  10267-4 0  9993
2 39086  98.5387 195.2025 0001572  55.4828 304.6504 14.32017856358778
1 43689U 18087A   20007.34323154 -.00000044  00000-0  00000+0 0  9996
2 43689  98.7217  69.0970 0003981  93.6438 266.5205 14.21689239 60569
